start=new Date('2022-12-22T00:00:00.000Z').valueOf();
sats=[{"REV_AT_EPOCH":"13230","OBJECT_TYPE":"PAYLOAD","LAUNCH_DATE":"2020-08-07","PERIAPSIS":"546.006","TLE_LINE1":"1 46066U 20055AR  22355.36560859 -.00002931  00000-0 -17798-3 0  9995","BSTAR":"-0.00017798000000","COUNTRY_CODE":"US","APOAPSIS":"548.488","FILE":"3716551","CENTER_NAME":"EARTH","TLE_LINE2":"2 46066  53.0546 328.3726 0001792  51.6279 308.4871 15.06389118132309","OBJECT_ID":"2020-055AR","OBJECT_NAME":"STARLINK-1525","SITE":"AFETR","INCLINATION":"53.0546","SEMIMAJOR_AXIS":"6925.382","ECCENTRICITY":"0.00017920","GP_ID":"221115448","MEAN_MOTION":"15.06389118","MEAN_MOTION_DDOT":"0.0000000000000","MEAN_ANOMALY":"308.4871","PERIOD":"95.593","EPHEMERIS_TYPE":"0","MEAN_ELEMENT_THEORY":"SGP4","DECAY_DATE":null,"REF_FRAME":"TEME","ELEMENT_SET_NO":"999","TIME_SYSTEM":"UTC","MEAN_MOTION_DOT":"-0.00002931","RA_OF_ASC_NODE":"328.3726","ARG_OF_PERICENTER":"51.6279","CLASSIFICATION_TYPE":"U","RCS_SIZE":"LARGE","NORAD_CAT_ID":"46066","EPOCH":"2022-12-21T08:46:28.582176"},{"PERIAPSIS":"545.924","BSTAR":"0.00007399300000","TLE_LINE1":"1 46067U 20055AS  22355.30201601  .00000820  00000-0  73993-4 0  9990","REV_AT_EPOCH":"13230","OBJECT_TYPE":"PAYLOAD","LAUNCH_DATE":"2020-08-07","COUNTRY_CODE":"US","APOAPSIS":"548.566","TLE_LINE2":"2 46067  53.0543 328.6491 0001907  70.3108 289.8086 15.06389715132309","FILE":"3716551","CENTER_NAME":"EARTH","INCLINATION":"53.0543","SEMIMAJOR_AXIS":"6925.380","OBJECT_ID":"2020-055AS","SITE":"AFETR","OBJECT_NAME":"STARLINK-1529","ECCENTRICITY":"0.00019070","MEAN_MOTION_DDOT":"0.0000000000000","MEAN_MOTION":"15.06389715","GP_ID":"221115669","MEAN_ELEMENT_THEORY":"SGP4","EPHEMERIS_TYPE":"0","MEAN_ANOMALY":"289.8086","PERIOD":"95.593","TIME_SYSTEM":"UTC","RA_OF_ASC_NODE":"328.6491","ARG_OF_PERICENTER":"70.3108","MEAN_MOTION_DOT":"0.00000820","ELEMENT_SET_NO":"999","DECAY_DATE":null,"REF_FRAME":"TEME","NORAD_CAT_ID":"46067","EPOCH":"2022-12-21T07:14:54.183264","RCS_SIZE":"LARGE","CLASSIFICATION_TYPE":"U"},{"BSTAR":"-0.00009308300000","TLE_LINE1":"1 46068U 20055AT  22355.44575103 -.00001668  00000-0 -93083-4 0  9992","PERIAPSIS":"545.831","LAUNCH_DATE":"2020-08-07","OBJECT_TYPE":"PAYLOAD","REV_AT_EPOCH":"13232","APOAPSIS":"548.654","COUNTRY_CODE":"US","TLE_LINE2":"2 46068  53.0546 327.9996 0002038  40.0447 320.0692 15.06390466132329","CENTER_NAME":"EARTH","FILE":"3716551","SEMIMAJOR_AXIS":"6925.378","INCLINATION":"53.0546","SITE":"AFETR","OBJECT_NAME":"STARLINK-1532","OBJECT_ID":"2020-055AT","MEAN_MOTION_DDOT":"0.0000000000000","GP_ID":"221113949","MEAN_MOTION":"15.06390466","ECCENTRICITY":"0.00020380","MEAN_ELEMENT_THEORY":"SGP4","EPHEMERIS_TYPE":"0","PERIOD":"95.593","MEAN_ANOMALY":"320.0692","RA_OF_ASC_NODE":"327.9996","ARG_OF_PERICENTER":"40.0447","MEAN_MOTION_DOT":"-0.00001668","TIME_SYSTEM":"UTC","ELEMENT_SET_NO":"999","REF_FRAME":"TEME","DECAY_DATE":null,"EPOCH":"2022-12-21T10:41:52.888992","NORAD_CAT_ID":"46068","RCS_SIZE":"LARGE","CLASSIFICATION_TYPE":"U"},{"BSTAR":"-0.00009262200000","TLE_LINE1":"1 46069U 20055AU  22355.66048695 -.00001660  00000-0 -92622-4 0  9998","PERIAPSIS":"546.160","LAUNCH_DATE":"2020-08-07","OBJECT_TYPE":"PAYLOAD","REV_AT_EPOCH":"13182","APOAPSIS":"548.351","COUNTRY_CODE":"US","TLE_LINE2":"2 46069  53.0562 327.0489 0001582  67.0707 293.0449 15.06386316131829","CENTER_NAME":"EARTH","FILE":"3716820","SEMIMAJOR_AXIS":"6925.390","INCLINATION":"53.0562","SITE":"AFETR","OBJECT_NAME":"STARLINK-1533","OBJECT_ID":"2020-055AU","MEAN_MOTION_DDOT":"0.0000000000000","MEAN_MOTION":"15.06386316","GP_ID":"221124459","ECCENTRICITY":"0.00015820","MEAN_ELEMENT_THEORY":"SGP4","EPHEMERIS_TYPE":"0","PERIOD":"95.593","MEAN_ANOMALY":"293.0449","ARG_OF_PERICENTER":"67.0707","RA_OF_ASC_NODE":"327.0489","MEAN_MOTION_DOT":"-0.00001660","TIME_SYSTEM":"UTC","ELEMENT_SET_NO":"999","REF_FRAME":"TEME","DECAY_DATE":null,"EPOCH":"2022-12-21T15:51:06.072480","NORAD_CAT_ID":"46069","RCS_SIZE":"LARGE","CLASSIFICATION_TYPE":"U"},{"EPOCH":"2022-12-21T09:50:10.411872","NORAD_CAT_ID":"46070","RCS_SIZE":"LARGE","CLASSIFICATION_TYPE":"U","RA_OF_ASC_NODE":"328.1772","ARG_OF_PERICENTER":"62.8569","MEAN_MOTION_DOT":"-0.00001383","TIME_SYSTEM":"UTC","ELEMENT_SET_NO":"999","DECAY_DATE":null,"REF_FRAME":"TEME","MEAN_ELEMENT_THEORY":"SGP4","EPHEMERIS_TYPE":"0","PERIOD":"95.593","MEAN_ANOMALY":"297.2582","MEAN_MOTION_DDOT":"0.0000000000000","MEAN_MOTION":"15.06388832","GP_ID":"221114950","ECCENTRICITY":"0.00015830","SEMIMAJOR_AXIS":"6925.383","INCLINATION":"53.0568","SITE":"AFETR","OBJECT_NAME":"STARLINK-1536","OBJECT_ID":"2020-055AV","TLE_LINE2":"2 46070  53.0568 328.1772 0001583  62.8569 297.2582 15.06388832132329","CENTER_NAME":"EARTH","FILE":"3716551","APOAPSIS":"548.344","COUNTRY_CODE":"US","BSTAR":"-0.00007397800000","TLE_LINE1":"1 46070U 20055AV  22355.40984273 -.00001383  00000-0 -73978-4 0  9998","PERIAPSIS":"546.151","LAUNCH_DATE":"2020-08-07","OBJECT_TYPE":"PAYLOAD","REV_AT_EPOCH":"13232"},{"ELEMENT_SET_NO":"999","REF_FRAME":"TEME","DECAY_DATE":null,"TIME_SYSTEM":"UTC","RA_OF_ASC_NODE":"328.6907","ARG_OF_PERICENTER":"57.4565","MEAN_MOTION_DOT":"-0.00000701","RCS_SIZE":"LARGE","CLASSIFICATION_TYPE":"U","NORAD_CAT_ID":"46071","EPOCH":"2022-12-21T07:05:37.678272","ECCENTRICITY":"0.00017600","MEAN_MOTION_DDOT":"0.0000000000000","GP_ID":"221115170","MEAN_MOTION":"15.06396111","MEAN_ANOMALY":"302.6594","PERIOD":"95.592","MEAN_ELEMENT_THEORY":"SGP4","EPHEMERIS_TYPE":"0","FILE":"3716551","CENTER_NAME":"EARTH","TLE_LINE2":"2 46071  53.0564 328.6907 0001760  57.4565 302.6594 15.06396111132305","OBJECT_ID":"2020-055AW","SITE":"AFETR","OBJECT_NAME":"STARLINK-1538","INCLINATION":"53.0564","SEMIMAJOR_AXIS":"6925.360","REV_AT_EPOCH":"13230","OBJECT_TYPE":"PAYLOAD","LAUNCH_DATE":"2020-08-07","PERIAPSIS":"546.007","BSTAR":"-0.00002819000000","TLE_LINE1":"1 46071U 20055AW  22355.29557498 -.00000701  00000-0 -28190-4 0  9990","COUNTRY_CODE":"US","APOAPSIS":"548.444"},{"OBJECT_ID":"2020-055AX","OBJECT_NAME":"STARLINK-1539","SITE":"AFETR","INCLINATION":"53.0555","SEMIMAJOR_AXIS":"6925.383","FILE":"3716551","CENTER_NAME":"EARTH","TLE_LINE2":"2 46072  53.0555 328.8724 0001586  57.2746 302.8395 15.06388667132285","COUNTRY_CODE":"US","APOAPSIS":"548.347","REV_AT_EPOCH":"13228","LAUNCH_DATE":"2020-08-07","OBJECT_TYPE":"PAYLOAD","PERIAPSIS":"546.150","TLE_LINE1":"1 46072U 20055AX  22355.25409252 -.00000176  00000-0  70947-5 0  9994","BSTAR":"0.00000709470000","CLASSIFICATION_TYPE":"U","RCS_SIZE":"LARGE","NORAD_CAT_ID":"46072","EPOCH":"2022-12-21T06:05:53.593728","DECAY_DATE":null,"REF_FRAME":"TEME","ELEMENT_SET_NO":"999","TIME_SYSTEM":"UTC","MEAN_MOTION_DOT":"-0.00000176","ARG_OF_PERICENTER":"57.2746","RA_OF_ASC_NODE":"328.8724","MEAN_ANOMALY":"302.8395","PERIOD":"95.593","EPHEMERIS_TYPE":"0","MEAN_ELEMENT_THEORY":"SGP4","ECCENTRICITY":"0.00015860","GP_ID":"221114449","MEAN_MOTION":"15.06388667","MEAN_MOTION_DDOT":"0.0000000000000"},{"MEAN_ELEMENT_THEORY":"SGP4","EPHEMERIS_TYPE":"0","PERIOD":"95.593","MEAN_ANOMALY":"295.2306","MEAN_MOTION_DDOT":"0.0000000000000","GP_ID":"221114698","MEAN_MOTION":"15.06392086","ECCENTRICITY":"0.00015670","EPOCH":"2022-12-21T09:39:33.000192","NORAD_CAT_ID":"46073","RCS_SIZE":"LARGE","CLASSIFICATION_TYPE":"U","RA_OF_ASC_NODE":"328.1964","ARG_OF_PERICENTER":"64.8846","MEAN_MOTION_DOT":"-0.00002339","TIME_SYSTEM":"UTC","ELEMENT_SET_NO":"999","DECAY_DATE":null,"REF_FRAME":"TEME","APOAPSIS":"548.323","COUNTRY_CODE":"US","BSTAR":"-0.00013823000000","TLE_LINE1":"1 46073U 20055AY  22355.40246528 -.00002339  00000-0 -13823-3 0  9999","PERIAPSIS":"546.153","OBJECT_TYPE":"PAYLOAD","LAUNCH_DATE":"2020-08-07","REV_AT_EPOCH":"13231","SEMIMAJOR_AXIS":"6925.373","INCLINATION":"53.0544","SITE":"AFETR","OBJECT_NAME":"STARLINK-1542","OBJECT_ID":"2020-055AY","TLE_LINE2":"2 46073  53.0544 328.1964 0001567  64.8846 295.2306 15.06392086132318","CENTER_NAME":"EARTH","FILE":"3716551"},{"OBJECT_ID":"2020-055AZ","OBJECT_NAME":"STARLINK-1549","SITE":"AFETR","INCLINATION":"53.0571","SEMIMAJOR_AXIS":"6925.368","FILE":"3715898","CENTER_NAME":"EARTH","TLE_LINE2":"2 46074  53.0571 327.9648 0001819  52.6196 307.4959 15.06393759131797","COUNTRY_CODE":"US","APOAPSIS":"548.492","REV_AT_EPOCH":"13179","LAUNCH_DATE":"2020-08-07","OBJECT_TYPE":"PAYLOAD","PERIAPSIS":"545.973","TLE_LINE1":"1 46074U 20055AZ  22355.45407276 -.00001378  00000-0 -73599-4 0  9993","BSTAR":"-0.00007359900000","CLASSIFICATION_TYPE":"U","RCS_SIZE":"LARGE","NORAD_CAT_ID":"46074","EPOCH":"2022-12-21T10:53:51.886464","DECAY_DATE":null,"REF_FRAME":"TEME","ELEMENT_SET_NO":"999","TIME_SYSTEM":"UTC","MEAN_MOTION_DOT":"-0.00001378","RA_OF_ASC_NODE":"327.9648","ARG_OF_PERICENTER":"52.6196","MEAN_ANOMALY":"307.4959","PERIOD":"95.593","EPHEMERIS_TYPE":"0","MEAN_ELEMENT_THEORY":"SGP4","ECCENTRICITY":"0.00018190","MEAN_MOTION":"15.06393759","GP_ID":"221081316","MEAN_MOTION_DDOT":"0.0000000000000"},{"COUNTRY_CODE":"US","APOAPSIS":"548.589","REV_AT_EPOCH":"13230","LAUNCH_DATE":"2020-08-07","OBJECT_TYPE":"PAYLOAD","PERIAPSIS":"545.882","BSTAR":"-0.00010687000000","TLE_LINE1":"1 46075U 20055BA  22355.34717607 -.00001873  00000-0 -10687-3 0  9992","OBJECT_ID":"2020-055BA","SITE":"AFETR","OBJECT_NAME":"STARLINK-1551","INCLINATION":"53.0549","SEMIMAJOR_AXIS":"6925.371","FILE":"3716551","CENTER_NAME":"EARTH","TLE_LINE2":"2 46075  53.0549 328.4538 0001954  51.7398 308.3766 15.06392789132307","MEAN_ANOMALY":"308.3766","PERIOD":"95.593","MEAN_ELEMENT_THEORY":"SGP4","EPHEMERIS_TYPE":"0","ECCENTRICITY":"0.00019540","MEAN_MOTION_DDOT":"0.0000000000000","GP_ID":"221115670","MEAN_MOTION":"15.06392789","RCS_SIZE":"LARGE","CLASSIFICATION_TYPE":"U","NORAD_CAT_ID":"46075","EPOCH":"2022-12-21T08:19:56.012448","ELEMENT_SET_NO":"999","REF_FRAME":"TEME","DECAY_DATE":null,"TIME_SYSTEM":"UTC","RA_OF_ASC_NODE":"328.4538","ARG_OF_PERICENTER":"51.7398","MEAN_MOTION_DOT":"-0.00001873"}];
